0 COSMOS 1691 DEB
1 16267U 85094L   13280.53245396  .00002580  00000-0  85654-2 0  1840
2 16267 082.6042 111.3249 0020656 048.0458 016.6522 12.99704712940068
0 COSMOS 1691 DEB
1 16267U 85094L   13281.53358821  .00001873  00000-0  62064-2 0  1854
2 16267 082.6036 110.6435 0020566 045.7925 020.7177 12.99714242940198
0 COSMOS 1691 DEB
1 16267U 85094L   13282.84179638  .00002213  00000-0  73395-2 0  1865
2 16267 082.6045 109.7533 0020626 042.8279 021.5833 12.99720148940362
0 COSMOS 1691 DEB
1 16267U 85094L   13285.53419800  .00001649  00000-0  54592-2 0  1873
2 16267 082.6029 107.9200 0020460 036.1520 019.5166 12.99733905940716
0 COSMOS 1691 DEB
1 16267U 85094L   13286.53799685  .00001656  00000-0  54824-2 0  1883
2 16267 082.6015 107.2346 0020441 033.6287 036.4275 12.99736906940843
0 COSMOS 1691 DEB
1 16267U 85094L   13288.45099120  .00002496  00000-0  82801-2 0  1893
2 16267 082.6014 105.9332 0020287 028.6377 347.7921 12.99741640941099
0 COSMOS 1691 DEB
1 16267U 85094L   13290.45490514  .00002990  00000-0  99284-2 0  1902
2 16267 082.6017 104.5698 0020120 022.9867 005.0707 12.99748042941357
0 COSMOS 1691 DEB
1 16267U 85094L   13291.45561563  .00003269  00000-0  10858-1 0  1916
2 16267 082.6020 103.8898 0019965 017.7913 010.2715 12.99752819941482
0 COSMOS 1691 DEB
1 16267U 85094L   13292.45624096  .00003470  00000-0  11524-1 0  1924
2 16267 082.6002 103.2061 0020010 011.7256 015.9536 12.99757186941615
0 COSMOS 1691 DEB
1 16267U 85094L   13293.45712691  .00003830  00000-0  12725-1 0  1939
2 16267 082.6025 102.5251 0019888 012.4050 016.1385 12.99763696941746
0 COSMOS 1691 DEB
1 16267U 85094L   13294.46485413  .00003962  00000-0  13161-1 0  1942
2 16267 082.6054 101.8410 0019848 010.7653 050.6544 12.99771082941875
